[
    {
        "Altitude(m)": 703718.818941445,
        "Argument of Periapsis(deg)": 0.010251109067964361,
        "Eccentricity": 0.0,
        "Inclination(deg)": 45.0,
        "Latitude(deg)": 26.32815485870279,
        "Longitude(deg)": -150.17756097967865,
        "Mean Anomaly(deg)": 141.2889949827327,
        "RAAN(deg)": 159.99032325268763,
        "Satellite Name": "Constellation 1 712",
        "Satellite Number": 712,
        "Semi-Major Axis(m)": 7083131.272910544,
        "Time(s)": 171
    },
    {
        "Altitude(m)": 703713.723252983,
        "Argument of Periapsis(deg)": 0.010311057074209765,
        "Eccentricity": 0.0,
        "Inclination(deg)": 45.0,
        "Latitude(deg)": 26.290583149150603,
        "Longitude(deg)": -150.12838548723218,
        "Mean Anomaly(deg)": 141.34969612298266,
        "RAAN(deg)": 159.99026666352202,
        "Satellite Name": "Constellation 1 712",
        "Satellite Number": 712,
        "Semi-Major Axis(m)": 7083131.272910544,
        "Time(s)": 172
    },
    {
        "Altitude(m)": 703708.6358171334,
        "Argument of Periapsis(deg)": 0.010371005080455171,
        "Eccentricity": 0.0,
        "Inclination(deg)": 45.0,
        "Latitude(deg)": 26.25299148294096,
        "Longitude(deg)": -150.07924431705368,
        "Mean Anomaly(deg)": 141.41039726323257,
        "RAAN(deg)": 159.99021007435647,
        "Satellite Name": "Constellation 1 712",
        "Satellite Number": 712,
        "Semi-Major Axis(m)": 7083131.272910544,
        "Time(s)": 173
    },
    {
        "Altitude(m)": 703703.5566717332,
        "Argument of Periapsis(deg)": 0.010430953086700577,
        "Eccentricity": 0.0,
        "Inclination(deg)": 45.0,
        "Latitude(deg)": 26.215379905325044,
        "Longitude(deg)": -150.0301374085178,
        "Mean Anomaly(deg)": 141.4710984034824,
        "RAAN(deg)": 159.99015348519092,
        "Satellite Name": "Constellation 1 712",
        "Satellite Number": 712,
        "Semi-Major Axis(m)": 7083131.272910544,
        "Time(s)": 174
    },
    {
        "Altitude(m)": 703698.4858545933,
        "Argument of Periapsis(deg)": 0.010490901092945983,
        "Eccentricity": 0.0,
        "Inclination(deg)": 45.0,
        "Latitude(deg)": 26.17774846148781,
        "Longitude(deg)": -149.98106470099378,
        "Mean Anomaly(deg)": 141.5317995437324,
        "RAAN(deg)": 159.99009689602534,
        "Satellite Name": "Constellation 1 712",
        "Satellite Number": 712,
        "Semi-Major Axis(m)": 7083131.272910544,
        "Time(s)": 175
    },
    {
        "Altitude(m)": 703693.423403497,
        "Argument of Periapsis(deg)": 0.010550849099191389,
        "Eccentricity": 0.0,
        "Inclination(deg)": 45.0,
        "Latitude(deg)": 26.140097196548506,
        "Longitude(deg)": -149.9320261338464,
        "Mean Anomaly(deg)": 141.59250068398222,
        "RAAN(deg)": 159.99004030685978,
        "Satellite Name": "Constellation 1 712",
        "Satellite Number": 712,
        "Semi-Major Axis(m)": 7083131.272910544,
        "Time(s)": 176
    },
    {
        "Altitude(m)": 703688.3693562039,
        "Argument of Periapsis(deg)": 0.010610797105436795,
        "Eccentricity": 0.0,
        "Inclination(deg)": 45.0,
        "Latitude(deg)": 26.1024261555602,
        "Longitude(deg)": -149.88302164643545,
        "Mean Anomaly(deg)": 141.65320182423216,
        "RAAN(deg)": 159.9899837176942,
        "Satellite Name": "Constellation 1 712",
        "Satellite Number": 712,
        "Semi-Major Axis(m)": 7083131.272910544,
        "Time(s)": 177
    },
    {
        "Altitude(m)": 703683.3237504472,
        "Argument of Periapsis(deg)": 0.0106707451116822,
        "Eccentricity": 0.0,
        "Inclination(deg)": 45.0,
        "Latitude(deg)": 26.064735383510573,
        "Longitude(deg)": -149.8340513462138,
        "Mean Anomaly(deg)": 141.71390296448203,
        "RAAN(deg)": 159.98992712852862,
        "Satellite Name": "Constellation 1 712",
        "Satellite Number": 712,
        "Semi-Major Axis(m)": 7083131.272910544,
        "Time(s)": 178
    },
    {
        "Altitude(m)": 703678.2866239416,
        "Argument of Periapsis(deg)": 0.010730693117927606,
        "Eccentricity": 0.0,
        "Inclination(deg)": 45.0,
        "Latitude(deg)": 26.02702492532057,
        "Longitude(deg)": -149.78511483633926,
        "Mean Anomaly(deg)": 141.77460410473196,
        "RAAN(deg)": 159.98987053936307,
        "Satellite Name": "Constellation 1 712",
        "Satellite Number": 712,
        "Semi-Major Axis(m)": 7083131.272910544,
        "Time(s)": 179
    },
    {
        "Altitude(m)": 703673.2580143685,
        "Argument of Periapsis(deg)": 0.01079064112417301,
        "Eccentricity": 0.0,
        "Inclination(deg)": 45.0,
        "Latitude(deg)": 25.989294825846553,
        "Longitude(deg)": -149.73621222425749,
        "Mean Anomaly(deg)": 141.83530524498184,
        "RAAN(deg)": 159.9898139501975,
        "Satellite Name": "Constellation 1 712",
        "Satellite Number": 712,
        "Semi-Major Axis(m)": 7083131.272910544,
        "Time(s)": 180
    },
    {
        "Altitude(m)": 703668.2379593886,
        "Argument of Periapsis(deg)": 0.010850589130418416,
        "Eccentricity": 0.0,
        "Inclination(deg)": 45.0,
        "Latitude(deg)": 25.951545129878898,
        "Longitude(deg)": -149.68734344931366,
        "Mean Anomaly(deg)": 141.89600638523171,
        "RAAN(deg)": 159.9897573610319,
        "Satellite Name": "Constellation 1 712",
        "Satellite Number": 712,
        "Semi-Major Axis(m)": 7083131.272910544,
        "Time(s)": 181
    },
    {
        "Altitude(m)": 703663.2264966312,
        "Argument of Periapsis(deg)": 0.01091053713666382,
        "Eccentricity": 0.0,
        "Inclination(deg)": 45.0,
        "Latitude(deg)": 25.913775882142534,
        "Longitude(deg)": -149.6385084508504,
        "Mean Anomaly(deg)": 141.95670752548165,
        "RAAN(deg)": 159.98970077186635,
        "Satellite Name": "Constellation 1 712",
        "Satellite Number": 712,
        "Semi-Major Axis(m)": 7083131.272910544,
        "Time(s)": 182
    },
    {
        "Altitude(m)": 703658.223663712,
        "Argument of Periapsis(deg)": 0.010970485142909228,
        "Eccentricity": 0.0,
        "Inclination(deg)": 45.0,
        "Latitude(deg)": 25.87598712729712,
        "Longitude(deg)": -149.58970716820804,
        "Mean Anomaly(deg)": 142.01740866573152,
        "RAAN(deg)": 159.98964418270077,
        "Satellite Name": "Constellation 1 712",
        "Satellite Number": 712,
        "Semi-Major Axis(m)": 7083131.272910544,
        "Time(s)": 183
    },
    {
        "Altitude(m)": 703653.2294982022,
        "Argument of Periapsis(deg)": 0.011030433149154634,
        "Eccentricity": 0.0,
        "Inclination(deg)": 45.0,
        "Latitude(deg)": 25.838178909936946,
        "Longitude(deg)": -149.54093954072448,
        "Mean Anomaly(deg)": 142.07810980598143,
        "RAAN(deg)": 159.98958759353522,
        "Satellite Name": "Constellation 1 712",
        "Satellite Number": 712,
        "Semi-Major Axis(m)": 7083131.272910544,
        "Time(s)": 184
    },
    {
        "Altitude(m)": 703648.2440376626,
        "Argument of Periapsis(deg)": 0.01109038115540004,
        "Eccentricity": 0.0,
        "Inclination(deg)": 45.0,
        "Latitude(deg)": 25.800351274591467,
        "Longitude(deg)": -149.49220567583328,
        "Mean Anomaly(deg)": 142.13881094623136,
        "RAAN(deg)": 159.98953100436967,
        "Satellite Name": "Constellation 1 712",
        "Satellite Number": 712,
        "Semi-Major Axis(m)": 7083131.272910544,
        "Time(s)": 185
    },
    {
        "Altitude(m)": 703643.2673196214,
        "Argument of Periapsis(deg)": 0.011150329161645444,
        "Eccentricity": 0.0,
        "Inclination(deg)": 45.0,
        "Latitude(deg)": 25.762504265724278,
        "Longitude(deg)": -149.4435051766756,
        "Mean Anomaly(deg)": 142.19951208648126,
        "RAAN(deg)": 159.98947441520406,
        "Satellite Name": "Constellation 1 712",
        "Satellite Number": 712,
        "Semi-Major Axis(m)": 7083131.272910544,
        "Time(s)": 186
    },
    {
        "Altitude(m)": 703638.2993815728,
        "Argument of Periapsis(deg)": 0.01121027716789085,
        "Eccentricity": 0.0,
        "Inclination(deg)": 45.0,
        "Latitude(deg)": 25.72463792773481,
        "Longitude(deg)": -149.39483815068232,
        "Mean Anomaly(deg)": 142.26021322673108,
        "RAAN(deg)": 159.9894178260385,
        "Satellite Name": "Constellation 1 712",
        "Satellite Number": 712,
        "Semi-Major Axis(m)": 7083131.272910544,
        "Time(s)": 187
    },
    {
        "Altitude(m)": 703633.3402610038,
        "Argument of Periapsis(deg)": 0.011270225174136258,
        "Eccentricity": 0.0,
        "Inclination(deg)": 45.0,
        "Latitude(deg)": 25.68675230495714,
        "Longitude(deg)": -149.34620453718682,
        "Mean Anomaly(deg)": 142.32091436698104,
        "RAAN(deg)": 159.98936123687292,
        "Satellite Name": "Constellation 1 712",
        "Satellite Number": 712,
        "Semi-Major Axis(m)": 7083131.272910544,
        "Time(s)": 188
    },
    {
        "Altitude(m)": 703628.3899953535,
        "Argument of Periapsis(deg)": 0.011330173180381662,
        "Eccentricity": 0.0,
        "Inclination(deg)": 45.0,
        "Latitude(deg)": 25.648847441660937,
        "Longitude(deg)": -149.29760427552247,
        "Mean Anomaly(deg)": 142.3816155072309,
        "RAAN(deg)": 159.98930464770737,
        "Satellite Name": "Constellation 1 712",
        "Satellite Number": 712,
        "Semi-Major Axis(m)": 7083131.272910544,
        "Time(s)": 189
    }
]